[{"OBJECT_NAME":"STARLINK-5501","OBJECT_ID":"2023-021W","EPOCH":"2026-03-09T17:03:16.033536","MEAN_MOTION":14.98328021,"ECCENTRICITY":0.00030894,"INCLINATION":70.0012,"RA_OF_ASC_NODE":184.4395,"ARG_OF_PERICENTER":264.3482,"MEAN_ANOMALY":95.7325,"EPHEMERIS_TYPE":0,"CLASSIFICATION_TYPE":"U","NORAD_CAT_ID":55648,"ELEMENT_SET_NO":999,"REV_AT_EPOCH":16879,"BSTAR":-4.4075747e-5,"MEAN_MOTION_DOT":-6.19e-6,"MEAN_MOTION_DDOT":0},{"OBJECT_NAME":"THOR ABLE DEB [YO]","OBJECT_ID":"1960-002D","EPOCH":"2026-03-09T10:49:33.639456","MEAN_MOTION":14.97533438,"ECCENTRICITY":0.00268025,"INCLINATION":48.1611,"RA_OF_ASC_NODE":231.3365,"ARG_OF_PERICENTER":170.582,"MEAN_ANOMALY":189.5606,"EPHEMERIS_TYPE":0,"CLASSIFICATION_TYPE":"U","NORAD_CAT_ID":115,"ELEMENT_SET_NO":999,"REV_AT_EPOCH":50318,"BSTAR":0.00053607823,"MEAN_MOTION_DOT":6.13e-5,"MEAN_MOTION_DDOT":0}]
